{
  "type": "FeatureCollection",
  "features": [
    {
      "type": "Feature",
      "properties": {
        "norad_id": 40376,
        "name": "SMAP",
        "group": "resource",
        "lat": -80.64695297803732,
        "lon": 65.61768681851503,
        "alt_km": 690.5556264581892,
        "timestamp": "2025-12-26T21:25:52.663654+00:00",
        "meta_object_name": "SMAP",
        "meta_object_id": "2015-003A",
        "meta_epoch": "2025-12-26T13:36:56.931840",
        "meta_mean_motion": 14.6336198,
        "meta_eccentricity": 0.00012377,
        "meta_inclination": 98.1291,
        "meta_ra_of_asc_node": 5.0919,
        "meta_arg_of_pericenter": 92.3685,
        "meta_mean_anomaly": 267.7659,
        "meta_ephemeris_type": 0,
        "meta_classification_type": "U",
        "meta_norad_cat_id": 40376,
        "meta_element_set_no": 999,
        "meta_rev_at_epoch": 58237,
        "meta_bstar": 0.00012422185,
        "meta_mean_motion_dot": 5.95e-06,
        "meta_mean_motion_ddot": 0,
        "tle_line1": "1 40376U 15003A   25360.56732560  .00000595  00000+0  12422-3 0  9991",
        "tle_line2": "2 40376  98.1291   5.0919 0001237  92.3685 267.7659 14.63361980582370"
      },
      "geometry": {
        "type": "Point",
        "coordinates": [
          65.61768681851503,
          -80.64695297803732
        ]
      }
    },
    {
      "type": "Feature",
      "properties": {
        "norad_id": 40536,
        "name": "KOMPSAT-3A",
        "group": "resource",
        "lat": 59.96462827628624,
        "lon": 169.5259928675026,
        "alt_km": 423.5780380348442,
        "timestamp": "2025-12-26T21:25:52.663665+00:00",
        "meta_object_name": "KOMPSAT-3A",
        "meta_object_id": "2015-014A",
        "meta_epoch": "2025-12-26T14:41:53.374848",
        "meta_mean_motion": 15.44461402,
        "meta_eccentricity": 0.00056725,
        "meta_inclination": 97.6807,
        "meta_ra_of_asc_node": 335.731,
        "meta_arg_of_pericenter": 97.4461,
        "meta_mean_anomaly": 262.7431,
        "meta_ephemeris_type": 0,
        "meta_classification_type": "U",
        "meta_norad_cat_id": 40536,
        "meta_element_set_no": 999,
        "meta_rev_at_epoch": 59509,
        "meta_bstar": 0.00046566517,
        "meta_mean_motion_dot": 0.00021506,
        "meta_mean_motion_ddot": 0,
        "tle_line1": "1 40536U 15014A   25360.61242332  .00021506  00000+0  46567-3 0  9992",
        "tle_line2": "2 40536  97.6807 335.7310 0005672  97.4461 262.7431 15.44461402595094"
      },
      "geometry": {
        "type": "Point",
        "coordinates": [
          169.5259928675026,
          59.96462827628624
        ]
      }
    },
    {
      "type": "Feature",
      "properties": {
        "norad_id": 40697,
        "name": "SENTINEL-2A",
        "group": "resource",
        "lat": -70.4527853440048,
        "lon": 98.36834346935815,
        "alt_km": 796.9843106462222,
        "timestamp": "2025-12-26T21:25:52.663675+00:00",
        "meta_object_name": "SENTINEL-2A",
        "meta_object_id": "2015-028A",
        "meta_epoch": "2025-12-26T15:03:20.771136",
        "meta_mean_motion": 14.30811513,
        "meta_eccentricity": 0.00010514,
        "meta_inclination": 98.5724,
        "meta_ra_of_asc_node": 72.9655,
        "meta_arg_of_pericenter": 87.2912,
        "meta_mean_anomaly": 272.8391,
        "meta_ephemeris_type": 0,
        "meta_classification_type": "U",
        "meta_norad_cat_id": 40697,
        "meta_element_set_no": 999,
        "meta_rev_at_epoch": 54905,
        "meta_bstar": 0.00012574368,
        "meta_mean_motion_dot": 2.86e-06,
        "meta_mean_motion_ddot": 0,
        "tle_line1": "1 40697U 15028A   25360.62732374  .00000286  00000+0  12574-3 0  9999",
        "tle_line2": "2 40697  98.5724  72.9655 0001051  87.2912 272.8391 14.30811513549055"
      },
      "geometry": {
        "type": "Point",
        "coordinates": [
          98.36834346935815,
          -70.4527853440048
        ]
      }
    },
    {
      "type": "Feature",
      "properties": {
        "norad_id": 40701,
        "name": "GAOFEN-8",
        "group": "resource",
        "lat": 65.7465294288157,
        "lon": 162.27513265775946,
        "alt_km": 435.12358917042184,
        "timestamp": "2025-12-26T21:25:52.663685+00:00",
        "meta_object_name": "GAOFEN-8",
        "meta_object_id": "2015-030A",
        "meta_epoch": "2025-12-26T14:54:01.356192",
        "meta_mean_motion": 15.39070117,
        "meta_eccentricity": 0.00115574,
        "meta_inclination": 97.6903,
        "meta_ra_of_asc_node": 179.4428,
        "meta_arg_of_pericenter": 90.4127,
        "meta_mean_anomaly": 269.8442,
        "meta_ephemeris_type": 0,
        "meta_classification_type": "U",
        "meta_norad_cat_id": 40701,
        "meta_element_set_no": 999,
        "meta_rev_at_epoch": 58484,
        "meta_bstar": 0.00082034969,
        "meta_mean_motion_dot": 0.00031825,
        "meta_mean_motion_ddot": 0,
        "tle_line1": "1 40701U 15030A   25360.62084903  .00031825  00000+0  82035-3 0  9998",
        "tle_line2": "2 40701  97.6903 179.4428 0011557  90.4127 269.8442 15.39070117584843"
      },
      "geometry": {
        "type": "Point",
        "coordinates": [
          162.27513265775946,
          65.7465294288157
        ]
      }
    },
    {
      "type": "Feature",
      "properties": {
        "norad_id": 40718,
        "name": "CARBONITE 1 (CBNT-1)",
        "group": "resource",
        "lat": 28.256066032326196,
        "lon": 177.17710163631023,
        "alt_km": 622.474988817271,
        "timestamp": "2025-12-26T21:25:52.663695+00:00",
        "meta_object_name": "CARBONITE 1 (CBNT-1)",
        "meta_object_id": "2015-032D",
        "meta_epoch": "2025-12-26T14:49:28.663104",
        "meta_mean_motion": 14.82808312,
        "meta_eccentricity": 0.00154712,
        "meta_inclination": 97.6408,
        "meta_ra_of_asc_node": 181.0515,
        "meta_arg_of_pericenter": 136.8999,
        "meta_mean_anomaly": 223.3429,
        "meta_ephemeris_type": 0,
        "meta_classification_type": "U",
        "meta_norad_cat_id": 40718,
        "meta_element_set_no": 999,
        "meta_rev_at_epoch": 56376,
        "meta_bstar": 0.00020084205,
        "meta_mean_motion_dot": 1.577e-05,
        "meta_mean_motion_ddot": 0,
        "tle_line1": "1 40718U 15032D   25360.61769286  .00001577  00000+0  20084-3 0  9998",
        "tle_line2": "2 40718  97.6408 181.0515 0015471 136.8999 223.3429 14.82808312563769"
      },
      "geometry": {
        "type": "Point",
        "coordinates": [
          177.17710163631023,
          28.256066032326196
        ]
      }
    },
    {
      "type": "Feature",
      "properties": {
        "norad_id": 40878,
        "name": "YAOGAN-27",
        "group": "resource",
        "lat": -64.48596055343937,
        "lon": 147.93994352749536,
        "alt_km": 1201.1949665366083,
        "timestamp": "2025-12-26T21:25:52.663706+00:00",
        "meta_object_name": "YAOGAN-27",
        "meta_object_id": "2015-040A",
        "meta_epoch": "2025-12-26T14:42:32.679936",
        "meta_mean_motion": 13.16060591,
        "meta_eccentricity": 0.00075896,
        "meta_inclination": 100.1025,
        "meta_ra_of_asc_node": 349.6057,
        "meta_arg_of_pericenter": 252.4748,
        "meta_mean_anomaly": 107.5536,
        "meta_ephemeris_type": 0,
        "meta_classification_type": "U",
        "meta_norad_cat_id": 40878,
        "meta_element_set_no": 999,
        "meta_rev_at_epoch": 49496,
        "meta_bstar": -0.0007213356,
        "meta_mean_motion_dot": -3.16e-06,
        "meta_mean_motion_ddot": 0,
        "tle_line1": "1 40878U 15040A   25360.61287824 -.00000316  00000+0 -72134-3 0  9992",
        "tle_line2": "2 40878 100.1025 349.6057 0007589 252.4748 107.5536 13.16060591494964"
      },
      "geometry": {
        "type": "Point",
        "coordinates": [
          147.93994352749536,
          -64.48596055343937
        ]
      }
    },
    {
      "type": "Feature",
      "properties": {
        "norad_id": 40894,
        "name": "GAOFEN-9 01",
        "group": "resource",
        "lat": -66.61238692098753,
        "lon": 57.348700260345176,
        "alt_km": 618.171859801244,
        "timestamp": "2025-12-26T21:25:52.663717+00:00",
        "meta_object_name": "GAOFEN-9 01",
        "meta_object_id": "2015-047A",
        "meta_epoch": "2025-12-26T15:15:20.552256",
        "meta_mean_motion": 14.82455968,
        "meta_eccentricity": 0.00272551,
        "meta_inclination": 97.6525,
        "meta_ra_of_asc_node": 38.99,
        "meta_arg_of_pericenter": 349.2094,
        "meta_mean_anomaly": 10.8532,
        "meta_ephemeris_type": 0,
        "meta_classification_type": "U",
        "meta_norad_cat_id": 40894,
        "meta_element_set_no": 999,
        "meta_rev_at_epoch": 55462,
        "meta_bstar": 0.00015836286,
        "meta_mean_motion_dot": 1.227e-05,
        "meta_mean_motion_ddot": 0,
        "tle_line1": "1 40894U 15047A   25360.63565454  .00001227  00000+0  15836-3 0  9993",
        "tle_line2": "2 40894  97.6525  38.9900 0027255 349.2094  10.8532 14.82455968554625"
      },
      "geometry": {
        "type": "Point",
        "coordinates": [
          57.348700260345176,
          -66.61238692098753
        ]
      }
    }
  ]
}